{
  "type": "FeatureCollection",
  "features": [
    {
      "type": "Feature",
      "properties": {
        "norad_id": 41772,
        "name": "SKYSAT-C5",
        "group": "resource",
        "lat": -3.423356363378892,
        "lon": 26.919841051531684,
        "alt_km": 465.249021657527,
        "timestamp": "2025-12-08T13:49:31.450726+00:00",
        "meta_object_name": "SKYSAT-C5",
        "meta_object_id": "2016-058C",
        "meta_epoch": "2025-12-08T04:27:16.601184",
        "meta_mean_motion": 15.35232133,
        "meta_eccentricity": 0.00026836,
        "meta_inclination": 97.0768,
        "meta_ra_of_asc_node": 26.1191,
        "meta_arg_of_pericenter": 142.41,
        "meta_mean_anomaly": 217.7332,
        "meta_ephemeris_type": 0,
        "meta_classification_type": "U",
        "meta_norad_cat_id": 41772,
        "meta_element_set_no": 999,
        "meta_rev_at_epoch": 51446,
        "meta_bstar": 0.00037630966,
        "meta_mean_motion_dot": 0.00012804,
        "meta_mean_motion_ddot": 0,
        "tle_line1": "1 41772U 16058C   25342.18560881  .00012804  00000+0  37631-3 0  9991",
        "tle_line2": "2 41772  97.0768  26.1191 0002683 142.4100 217.7332 15.35232133514464"
      },
      "geometry": {
        "type": "Point",
        "coordinates": [
          26.919841051531684,
          -3.423356363378892
        ]
      }
    },
    {
      "type": "Feature",
      "properties": {
        "norad_id": 41773,
        "name": "SKYSAT-C2",
        "group": "resource",
        "lat": -22.471993299197045,
        "lon": 10.207927270598935,
        "alt_km": 458.8569491300377,
        "timestamp": "2025-12-08T13:49:31.450737+00:00",
        "meta_object_name": "SKYSAT-C2",
        "meta_object_id": "2016-058D",
        "meta_epoch": "2025-12-08T01:25:28.611552",
        "meta_mean_motion": 15.37112071,
        "meta_eccentricity": 0.00047035,
        "meta_inclination": 97.0359,
        "meta_ra_of_asc_node": 6.7848,
        "meta_arg_of_pericenter": 46.177,
        "meta_mean_anomaly": 313.9864,
        "meta_ephemeris_type": 0,
        "meta_classification_type": "U",
        "meta_norad_cat_id": 41773,
        "meta_element_set_no": 999,
        "meta_rev_at_epoch": 51564,
        "meta_bstar": 0.00039740217,
        "meta_mean_motion_dot": 0.00014374,
        "meta_mean_motion_ddot": 0,
        "tle_line1": "1 41773U 16058D   25342.05935893  .00014374  00000+0  39740-3 0  9994",
        "tle_line2": "2 41773  97.0359   6.7848 0004703  46.1770 313.9864 15.37112071515642"
      },
      "geometry": {
        "type": "Point",
        "coordinates": [
          10.207927270598935,
          -22.471993299197045
        ]
      }
    },
    {
      "type": "Feature",
      "properties": {
        "norad_id": 41774,
        "name": "SKYSAT-C3",
        "group": "resource",
        "lat": 59.328679370404195,
        "lon": 4.6823207649810135,
        "alt_km": 427.32439523349694,
        "timestamp": "2025-12-08T13:49:31.450747+00:00",
        "meta_object_name": "SKYSAT-C3",
        "meta_object_id": "2016-058E",
        "meta_epoch": "2025-12-08T01:07:27.110784",
        "meta_mean_motion": 15.44154244,
        "meta_eccentricity": 0.00015522,
        "meta_inclination": 96.9299,
        "meta_ra_of_asc_node": 16.0121,
        "meta_arg_of_pericenter": 104.2631,
        "meta_mean_anomaly": 255.8791,
        "meta_ephemeris_type": 0,
        "meta_classification_type": "U",
        "meta_norad_cat_id": 41774,
        "meta_element_set_no": 999,
        "meta_rev_at_epoch": 51653,
        "meta_bstar": 0.0004888496,
        "meta_mean_motion_dot": 0.00022349,
        "meta_mean_motion_ddot": 0,
        "tle_line1": "1 41774U 16058E   25342.04684156  .00022349  00000+0  48885-3 0  9998",
        "tle_line2": "2 41774  96.9299  16.0121 0001552 104.2631 255.8791 15.44154244516531"
      },
      "geometry": {
        "type": "Point",
        "coordinates": [
          4.6823207649810135,
          59.328679370404195
        ]
      }
    },
    {
      "type": "Feature",
      "properties": {
        "norad_id": 41785,
        "name": "ALSAT 1B",
        "group": "resource",
        "lat": -78.06291306322547,
        "lon": 34.84837446887857,
        "alt_km": 668.9679275506714,
        "timestamp": "2025-12-08T13:49:31.450759+00:00",
        "meta_object_name": "ALSAT 1B",
        "meta_object_id": "2016-059C",
        "meta_epoch": "2025-12-08T07:40:04.165824",
        "meta_mean_motion": 14.72068879,
        "meta_eccentricity": 0.00106006,
        "meta_inclination": 97.7815,
        "meta_ra_of_asc_node": 354.3,
        "meta_arg_of_pericenter": 116.2814,
        "meta_mean_anomaly": 243.9485,
        "meta_ephemeris_type": 0,
        "meta_classification_type": "U",
        "meta_norad_cat_id": 41785,
        "meta_element_set_no": 999,
        "meta_rev_at_epoch": 49249,
        "meta_bstar": 0.0001502893,
        "meta_mean_motion_dot": 8.98e-06,
        "meta_mean_motion_ddot": 0,
        "tle_line1": "1 41785U 16059C   25342.31949266  .00000898  00000+0  15029-3 0  9996",
        "tle_line2": "2 41785  97.7815 354.3000 0010600 116.2814 243.9485 14.72068879492494"
      },
      "geometry": {
        "type": "Point",
        "coordinates": [
          34.84837446887857,
          -78.06291306322547
        ]
      }
    },
    {
      "type": "Feature",
      "properties": {
        "norad_id": 41787,
        "name": "PATHFINDER 1",
        "group": "resource",
        "lat": 67.32653586978635,
        "lon": -33.647064650418685,
        "alt_km": 643.9183716644011,
        "timestamp": "2025-12-08T13:49:31.450769+00:00",
        "meta_object_name": "PATHFINDER 1",
        "meta_object_id": "2016-059E",
        "meta_epoch": "2025-12-08T06:58:04.930176",
        "meta_mean_motion": 14.6730964,
        "meta_eccentricity": 0.00300536,
        "meta_inclination": 97.8138,
        "meta_ra_of_asc_node": 345.2704,
        "meta_arg_of_pericenter": 94.6991,
        "meta_mean_anomaly": 265.7648,
        "meta_ephemeris_type": 0,
        "meta_classification_type": "U",
        "meta_norad_cat_id": 41787,
        "meta_element_set_no": 999,
        "meta_rev_at_epoch": 49171,
        "meta_bstar": 0.00027526391,
        "meta_mean_motion_dot": 1.517e-05,
        "meta_mean_motion_ddot": 0,
        "tle_line1": "1 41787U 16059E   25342.29033484  .00001517  00000+0  27526-3 0  9995",
        "tle_line2": "2 41787  97.8138 345.2704 0030053  94.6991 265.7648 14.67309640491719"
      },
      "geometry": {
        "type": "Point",
        "coordinates": [
          -33.647064650418685,
          67.32653586978635
        ]
      }
    },
    {
      "type": "Feature",
      "properties": {
        "norad_id": 41790,
        "name": "SCATSAT 1",
        "group": "resource",
        "lat": -66.78048376201859,
        "lon": -160.31167081952347,
        "alt_km": 651.2839676299245,
        "timestamp": "2025-12-08T13:49:31.450779+00:00",
        "meta_object_name": "SCATSAT 1",
        "meta_object_id": "2016-059H",
        "meta_epoch": "2025-12-08T02:58:06.608640",
        "meta_mean_motion": 14.78911997,
        "meta_eccentricity": 0.00560605,
        "meta_inclination": 98.1466,
        "meta_ra_of_asc_node": 38.7364,
        "meta_arg_of_pericenter": 142.5942,
        "meta_mean_anomaly": 217.9191,
        "meta_ephemeris_type": 0,
        "meta_classification_type": "U",
        "meta_norad_cat_id": 41790,
        "meta_element_set_no": 999,
        "meta_rev_at_epoch": 7334,
        "meta_bstar": 0.00033760448,
        "meta_mean_motion_dot": 2.499e-05,
        "meta_mean_motion_ddot": 0,
        "tle_line1": "1 41790U 16059H   25342.12368760  .00002499  00000+0  33760-3 0  9996",
        "tle_line2": "2 41790  98.1466  38.7364 0056060 142.5942 217.9191 14.78911997 73345"
      },
      "geometry": {
        "type": "Point",
        "coordinates": [
          -160.31167081952347,
          -66.78048376201859
        ]
      }
    },
    {
      "type": "Feature",
      "properties": {
        "norad_id": 41875,
        "name": "GOKTURK 1A",
        "group": "resource",
        "lat": -33.57785873355048,
        "lon": 49.54219938686658,
        "alt_km": 690.9893998345933,
        "timestamp": "2025-12-08T13:49:31.450789+00:00",
        "meta_object_name": "GOKTURK 1A",
        "meta_object_id": "2016-073A",
        "meta_epoch": "2025-12-08T06:17:02.424768",
        "meta_mean_motion": 14.62772214,
        "meta_eccentricity": 0.00012332,
        "meta_inclination": 98.1437,
        "meta_ra_of_asc_node": 234.6869,
        "meta_arg_of_pericenter": 83.3122,
        "meta_mean_anomaly": 276.822,
        "meta_ephemeris_type": 0,
        "meta_classification_type": "U",
        "meta_norad_cat_id": 41875,
        "meta_element_set_no": 999,
        "meta_rev_at_epoch": 48091,
        "meta_bstar": 0.00022207888,
        "meta_mean_motion_dot": 1.086e-05,
        "meta_mean_motion_ddot": 0,
        "tle_line1": "1 41875U 16073A   25342.26183362  .00001086  00000+0  22208-3 0  9990",
        "tle_line2": "2 41875  98.1437 234.6869 0001233  83.3122 276.8220 14.62772214480910"
      },
      "geometry": {
        "type": "Point",
        "coordinates": [
          49.54219938686658,
          -33.57785873355048
        ]
      }
    }
  ]
}